CAS-2T & KS-1Q          
1 41847U 16066G   21164.78755975  .00000110  00000-0  27601-4 0  9992
2 41847  98.6012 223.9033 0364319 231.2225 125.5894 14.38195204241353
NAYIF-1 (EO-88)         
1 42017U 17008BX  21164.82869299  .00002621  00000-0  98058-4 0  9992
2 42017  97.3154 232.4932 0007634 115.9661 244.2366 15.28176760240702
ZHUHAI-1 02 (CAS-4B)    
1 42759U 17034B   21165.19025958  .00000215  00000-0  26216-4 0  9995
2 42759  43.0164 199.0221 0007585 150.1180 320.3815 15.10225445220658
ZHUHAI-1 01 (CAS-4A)    
1 42761U 17034D   21165.17000559  .00000224  00000-0  26709-4 0  9993
2 42761  43.0165 198.1898 0007848 150.2550 258.0866 15.10312663220658
MAX VALIER SAT          
1 42778U 17036P   21164.69173610  .00001395  00000-0  61043-4 0  9998
2 42778  97.2549 213.4260 0011805 180.7564 179.3658 15.23605950220717
RADFXSAT (FOX-1B)       
1 43017U 17073E   21164.68136093  .00000699  00000-0  59718-4 0  9991
2 43017  97.7073  68.8174 0253850 312.9770  45.0405 14.79561373192563
FOX-1D (AO-92)          
1 43137U 18004AC  21165.18379797  .00001478  00000-0  61636-4 0  9993
2 43137  97.4066 239.2483 0007811 213.3320 146.7427 15.25254916190151
DIWATA-2B               
1 43678U 18084H   21165.23389317 -.00000016  00000-0  41304-5 0  9995
2 43678  97.9238 290.4966 0011293  65.4192 294.8243 14.91751762142953
ES'HAIL 2               
1 43700U 18090A   21164.83205743  .00000155  00000-0  00000-0 0  9999
2 43700   0.0169  60.4578 0001024  40.6324 126.6200  1.00273992  9333
FOX-1CLIFF (AO-95)      
1 43770U 18099N   21165.17105458 -.00000001  00000-0  50273-5 0  9998
2 43770  97.6649 235.4307 0015958  70.9982 289.2966 14.95326720137968
ITASAT 1                
1 43786U 18099AE  21164.75640206  .00000483  00000-0  48497-4 0  9990
2 43786  97.6671 235.7005 0016662  66.1327 294.1638 14.95621654137933
JY1SAT (JO-97)          
1 43803U 18099AX  21164.72086928  .00000287  00000-0  30747-4 0  9993
2 43803  97.6627 235.4181 0016351  66.1350 294.1583 14.95864227137931
UWE-4                   
1 43880U 18111E   21164.70699103  .00000405  00000-0  40290-4 0  9992
2 43880  97.6880  72.5042 0013737 112.5317 247.7360 14.96874375134522
PSAT2 (NO-104)          
1 44354U 19036R   21164.28261950  .00011618  00000-0  15140-3 0  9997
2 44354  28.5281 154.8476 0325730 230.7856 126.3388 15.13400780108340
BRICSAT2 (NO-103)       
1 44355U 19036S   21164.88185953  .00033526  00000-0  36840-3 0  9994
2 44355  28.5264 106.3965 0264280 309.7535  48.0056 15.29349802108885
JAISAT-1                
1 44419U 19038F   21164.87039589  .00001305  00000-0  75776-4 0  9991
2 44419  97.5883 129.5841 0020170 329.1156  30.8887 15.13764240107253
DUCHIFAT-3              
1 44854U 19089C   21165.19748975  .00000485  00000-0  45113-4 0  9992
2 44854  36.9649 119.8877 0006989 111.5196 248.6290 14.99499977 82617
RS-44 & BREEZE-KM R/B   
1 44909U 19096E   21164.87494036  .00000035  00000-0  85354-4 0  9993
2 44909  82.5204 115.1904 0218526 101.3788 261.1948 12.79710185 68367
ORBITAL FACTORY 2 (OF-2)
1 45113U 19071C   21164.69631030  .00003572  00000-0  11190-3 0  9996
2 45113  51.6431  55.7293 0011185 280.7917  79.1807 15.35753668 76595
HUSKYSAT-1 (HO-107)     
1 45119U 19071J   21164.90299432  .00003415  00000-0  10740-3 0  9998
2 45119  51.6424  54.1050 0010563 277.8067  82.1717 15.35780452 76628
BY70-2                  
1 45857U 20042B   21165.19010754  .00001331  00000-0  19591-3 0  9995
2 45857  97.9839 240.9705 0010117 216.1426 143.9133 14.77024882 51064
SALSAT                  
1 46495U 20068K   21164.93362050 -.00000150  00000-0 -64376-5 0  9995
2 46495  97.6952 102.4508 0019007  83.6105 276.7281 15.03457997 38800
BY70-3                  
1 46839U 20079N   21165.18442455  .00003454  00000-0  10845-3 0  9993
2 46839  97.2405 239.1047 0006255 205.8877 239.2346 15.33665575 33708
RADFXSAT-2 (AO-109)     
1 47311U 21002C   21164.74405747  .00001043  00000-0  57197-4 0  9994
2 47311  60.6846 305.0819 0036117  46.0150 314.3904 15.21645068 22307
UVSQ-SAT                
1 47438U 21006AB  21164.87675883  .00000976  00000-0  58611-4 0  9998
2 47438  97.4873 226.1646 0014373 108.7756 251.5036 15.13134319 21517
DIY-1 (ARDUIQUBE)       
1 47963U 21022AH  21164.71035566  .00001840  00000-0  12587-3 0  9992
2 47963  97.5590  67.1105 0018667 323.2028  36.7918 15.07237605 11332
